ONEWEB-0650             
1 55813U 23029T   23242.67385185  .00006567  00000+0  16369-1 0  9993
2 55813  87.9232 148.2500 0002348  82.4289 277.7110 13.19686471 24169
ONEWEB-0652             
1 55814U 23029U   23242.91667824  .00000014  00000+0  00000+0 0  9998
2 55814  87.8551 133.0259 0001258  98.7980 279.5110 13.34505204 25862
ONEWEB-0653             
1 55815U 23029V   23242.91667824  .00000014  00000+0  00000+0 0  9999
2 55815  87.8522 132.9521 0002907 116.0931 226.0166 13.35170612 25885
ONEWEB-0654             
1 55816U 23029W   23242.91667824  .00000014  00000+0  00000+0 0  9990
2 55816  87.8713 133.0081 0003156 238.4002 288.0829 13.34253961 25912
ONEWEB-0656             
1 55817U 23029X   23242.91667824 -.00901324  00000+0 -26401+0 0  9990
2 55817  86.8495 122.9083 0002552  91.8544 303.1143 14.46986127  5781
ONEWEB-0657             
1 55818U 23029Y   23242.66918006 -.00000247  00000+0 -64927-3 0  9997
2 55818  87.9180 148.2612 0002853  55.3339 304.8062 13.19727791 24176
ONEWEB-0658             
1 55819U 23029Z   23242.43696073 -.00000409  00000+0 -10534-2 0  9994
2 55819  87.9273 148.2518 0002620  88.4139 271.7294 13.19818512 24151
ONEWEB-0660             
1 55820U 23029AA  23242.91667824  .00000014  00000+0  00000+0 0  9995
2 55820  87.8506 132.9841 0004189 134.1801   0.5591 13.35542777 25915
